STARLINK-36325          
1 67861U 26034M   26063.16670139 -.00001039  00000+0 -17271-5 0  9990
2 67861  53.1593 238.9386 0000789 117.0340 280.9215 15.80858611  2973
STARLINK-36332          
1 67862U 26034N   26063.16670139  .00001983  00000+0  13592-4 0  9998
2 67862  53.1591 238.9301 0001213 118.2258 284.0029 15.80862704  2979
STARLINK-36835          
1 67863U 26034P   26063.16670139 -.00039272  00000+0 -19626-3 0  9996
2 67863  53.1594 238.9196 0001252  81.1370 325.3549 15.80879938  2974
STARLINK-36831          
1 67864U 26034Q   26063.16670139 -.00030543  00000+0 -15158-3 0  9995
2 67864  53.1592 238.9116 0001439  68.9294 341.8194 15.80895367  2973
STARLINK-36738          
1 67865U 26034R   26063.16670139 -.00073361  00000+0 -37086-3 0  9995
2 67865  53.1593 238.9025 0000487  32.3151  22.7225 15.80899765  2979
STARLINK-36780          
1 67866U 26034S   26063.16670139  .00009958  00000+0  53983-4 0  9990
2 67866  53.1595 238.8924 0001359  59.9171 359.4040 15.80854189  2971
STARLINK-36761          
1 67867U 26034T   26063.16670139 -.00060823  00000+0 -30658-3 0  9994
2 67867  53.1593 238.8837 0000430  82.3385 341.2473 15.80889037  2978
STARLINK-36762          
1 67868U 26034U   26063.16670139 -.00026359  00000+0 -13046-3 0  9993
2 67868  53.1593 238.8751 0001377  68.7185 359.1420 15.80864510  2970
STARLINK-36779          
1 67869U 26034V   26063.16670139 -.00058015  00000+0 -29210-3 0  9998
2 67869  53.1594 238.8657 0001551  73.2259 358.9020 15.80890356  2974
STARLINK-36770          
1 67870U 26034W   26063.16670139 -.00110132  00000+0 -56096-3 0  9991
2 67870  53.1595 238.8479 0000181  51.2826  29.4039 15.80898490  2970
STARLINK-36769          
1 67871U 26034X   26063.16670139  .00012496  00000+0  66802-4 0  9991
2 67871  53.1596 238.8571 0001113  60.0611  16.3354 15.80857826  2974
STARLINK-36786          
1 67872U 26034Y   26063.16670139 -.00002955  00000+0 -11445-4 0  9996
2 67872  53.1594 238.8393 0000780  68.2574  16.6820 15.80863699  2978
