CCSDS_OMM_VERS = 2.0
CREATION_DATE  = 
ORIGINATOR     = 

OBJECT_NAME    = STARLINK-36325
OBJECT_ID      = 2026-034M
CENTER_NAME    = EARTH
REF_FRAME      = TEME
TIME_SYSTEM    = UTC
MEAN_ELEMENT_THEORY = SGP/SGP4

EPOCH          = 2026-03-04T04:00:03.000096
MEAN_MOTION    = 15.80858611
ECCENTRICITY   = .0000789
INCLINATION    = 53.1593
RA_OF_ASC_NODE = 238.9386
ARG_OF_PERICENTER = 117.0340
MEAN_ANOMALY   = 280.9215

EPHEMERIS_TYPE = 0
CLASSIFICATION_TYPE = U
NORAD_CAT_ID   = 67861
ELEMENT_SET_NO = 999
REV_AT_EPOCH   = 297
BSTAR          = -.17271E-5
MEAN_MOTION_DOT = -.1039E-4
MEAN_MOTION_DDOT = 0

CCSDS_OMM_VERS = 2.0
CREATION_DATE  = 
ORIGINATOR     = 

OBJECT_NAME    = STARLINK-36332
OBJECT_ID      = 2026-034N
CENTER_NAME    = EARTH
REF_FRAME      = TEME
TIME_SYSTEM    = UTC
MEAN_ELEMENT_THEORY = SGP/SGP4

EPOCH          = 2026-03-04T04:00:03.000096
MEAN_MOTION    = 15.80862704
ECCENTRICITY   = .0001213
INCLINATION    = 53.1591
RA_OF_ASC_NODE = 238.9301
ARG_OF_PERICENTER = 118.2258
MEAN_ANOMALY   = 284.0029

EPHEMERIS_TYPE = 0
CLASSIFICATION_TYPE = U
NORAD_CAT_ID   = 67862
ELEMENT_SET_NO = 999
REV_AT_EPOCH   = 297
BSTAR          = .13592E-4
MEAN_MOTION_DOT = .1983E-4
MEAN_MOTION_DDOT = 0

CCSDS_OMM_VERS = 2.0
CREATION_DATE  = 
ORIGINATOR     = 

OBJECT_NAME    = STARLINK-36835
OBJECT_ID      = 2026-034P
CENTER_NAME    = EARTH
REF_FRAME      = TEME
TIME_SYSTEM    = UTC
MEAN_ELEMENT_THEORY = SGP/SGP4

EPOCH          = 2026-03-04T04:00:03.000096
MEAN_MOTION    = 15.80879938
ECCENTRICITY   = .0001252
INCLINATION    = 53.1594
RA_OF_ASC_NODE = 238.9196
ARG_OF_PERICENTER = 81.1370
MEAN_ANOMALY   = 325.3549

EPHEMERIS_TYPE = 0
CLASSIFICATION_TYPE = U
NORAD_CAT_ID   = 67863
ELEMENT_SET_NO = 999
REV_AT_EPOCH   = 297
BSTAR          = -.19626E-3
MEAN_MOTION_DOT = -.39272E-3
MEAN_MOTION_DDOT = 0

CCSDS_OMM_VERS = 2.0
CREATION_DATE  = 
ORIGINATOR     = 

OBJECT_NAME    = STARLINK-36831
OBJECT_ID      = 2026-034Q
CENTER_NAME    = EARTH
REF_FRAME      = TEME
TIME_SYSTEM    = UTC
MEAN_ELEMENT_THEORY = SGP/SGP4

EPOCH          = 2026-03-04T04:00:03.000096
MEAN_MOTION    = 15.80895367
ECCENTRICITY   = .0001439
INCLINATION    = 53.1592
RA_OF_ASC_NODE = 238.9116
ARG_OF_PERICENTER = 68.9294
MEAN_ANOMALY   = 341.8194

EPHEMERIS_TYPE = 0
CLASSIFICATION_TYPE = U
NORAD_CAT_ID   = 67864
ELEMENT_SET_NO = 999
REV_AT_EPOCH   = 297
BSTAR          = -.15158E-3
MEAN_MOTION_DOT = -.30543E-3
MEAN_MOTION_DDOT = 0

CCSDS_OMM_VERS = 2.0
CREATION_DATE  = 
ORIGINATOR     = 

OBJECT_NAME    = STARLINK-36738
OBJECT_ID      = 2026-034R
CENTER_NAME    = EARTH
REF_FRAME      = TEME
TIME_SYSTEM    = UTC
MEAN_ELEMENT_THEORY = SGP/SGP4

EPOCH          = 2026-03-04T04:00:03.000096
MEAN_MOTION    = 15.80899765
ECCENTRICITY   = .0000487
INCLINATION    = 53.1593
RA_OF_ASC_NODE = 238.9025
ARG_OF_PERICENTER = 32.3151
MEAN_ANOMALY   = 22.7225

EPHEMERIS_TYPE = 0
CLASSIFICATION_TYPE = U
NORAD_CAT_ID   = 67865
ELEMENT_SET_NO = 999
REV_AT_EPOCH   = 297
BSTAR          = -.37086E-3
MEAN_MOTION_DOT = -.73361E-3
MEAN_MOTION_DDOT = 0

CCSDS_OMM_VERS = 2.0
CREATION_DATE  = 
ORIGINATOR     = 

OBJECT_NAME    = STARLINK-36780
OBJECT_ID      = 2026-034S
CENTER_NAME    = EARTH
REF_FRAME      = TEME
TIME_SYSTEM    = UTC
MEAN_ELEMENT_THEORY = SGP/SGP4

EPOCH          = 2026-03-04T04:00:03.000096
MEAN_MOTION    = 15.80854189
ECCENTRICITY   = .0001359
INCLINATION    = 53.1595
RA_OF_ASC_NODE = 238.8924
ARG_OF_PERICENTER = 59.9171
MEAN_ANOMALY   = 359.4040

EPHEMERIS_TYPE = 0
CLASSIFICATION_TYPE = U
NORAD_CAT_ID   = 67866
ELEMENT_SET_NO = 999
REV_AT_EPOCH   = 297
BSTAR          = .53983E-4
MEAN_MOTION_DOT = .9958E-4
MEAN_MOTION_DDOT = 0

CCSDS_OMM_VERS = 2.0
CREATION_DATE  = 
ORIGINATOR     = 

OBJECT_NAME    = STARLINK-36761
OBJECT_ID      = 2026-034T
CENTER_NAME    = EARTH
REF_FRAME      = TEME
TIME_SYSTEM    = UTC
MEAN_ELEMENT_THEORY = SGP/SGP4

EPOCH          = 2026-03-04T04:00:03.000096
MEAN_MOTION    = 15.80889037
ECCENTRICITY   = .000043
INCLINATION    = 53.1593
RA_OF_ASC_NODE = 238.8837
ARG_OF_PERICENTER = 82.3385
MEAN_ANOMALY   = 341.2473

EPHEMERIS_TYPE = 0
CLASSIFICATION_TYPE = U
NORAD_CAT_ID   = 67867
ELEMENT_SET_NO = 999
REV_AT_EPOCH   = 297
BSTAR          = -.30658E-3
MEAN_MOTION_DOT = -.60823E-3
MEAN_MOTION_DDOT = 0

CCSDS_OMM_VERS = 2.0
CREATION_DATE  = 
ORIGINATOR     = 

OBJECT_NAME    = STARLINK-36762
OBJECT_ID      = 2026-034U
CENTER_NAME    = EARTH
REF_FRAME      = TEME
TIME_SYSTEM    = UTC
MEAN_ELEMENT_THEORY = SGP/SGP4

EPOCH          = 2026-03-04T04:00:03.000096
MEAN_MOTION    = 15.80864510
ECCENTRICITY   = .0001377
INCLINATION    = 53.1593
RA_OF_ASC_NODE = 238.8751
ARG_OF_PERICENTER = 68.7185
MEAN_ANOMALY   = 359.1420

EPHEMERIS_TYPE = 0
CLASSIFICATION_TYPE = U
NORAD_CAT_ID   = 67868
ELEMENT_SET_NO = 999
REV_AT_EPOCH   = 297
BSTAR          = -.13046E-3
MEAN_MOTION_DOT = -.26359E-3
MEAN_MOTION_DDOT = 0

CCSDS_OMM_VERS = 2.0
CREATION_DATE  = 
ORIGINATOR     = 

OBJECT_NAME    = STARLINK-36779
OBJECT_ID      = 2026-034V
CENTER_NAME    = EARTH
REF_FRAME      = TEME
TIME_SYSTEM    = UTC
MEAN_ELEMENT_THEORY = SGP/SGP4

EPOCH          = 2026-03-04T04:00:03.000096
MEAN_MOTION    = 15.80890356
ECCENTRICITY   = .0001551
INCLINATION    = 53.1594
RA_OF_ASC_NODE = 238.8657
ARG_OF_PERICENTER = 73.2259
MEAN_ANOMALY   = 358.9020

EPHEMERIS_TYPE = 0
CLASSIFICATION_TYPE = U
NORAD_CAT_ID   = 67869
ELEMENT_SET_NO = 999
REV_AT_EPOCH   = 297
BSTAR          = -.2921E-3
MEAN_MOTION_DOT = -.58015E-3
MEAN_MOTION_DDOT = 0

CCSDS_OMM_VERS = 2.0
CREATION_DATE  = 
ORIGINATOR     = 

OBJECT_NAME    = STARLINK-36770
OBJECT_ID      = 2026-034W
CENTER_NAME    = EARTH
REF_FRAME      = TEME
TIME_SYSTEM    = UTC
MEAN_ELEMENT_THEORY = SGP/SGP4

EPOCH          = 2026-03-04T04:00:03.000096
MEAN_MOTION    = 15.80898490
ECCENTRICITY   = .0000181
INCLINATION    = 53.1595
RA_OF_ASC_NODE = 238.8479
ARG_OF_PERICENTER = 51.2826
MEAN_ANOMALY   = 29.4039

EPHEMERIS_TYPE = 0
CLASSIFICATION_TYPE = U
NORAD_CAT_ID   = 67870
ELEMENT_SET_NO = 999
REV_AT_EPOCH   = 297
BSTAR          = -.56096E-3
MEAN_MOTION_DOT = -.110132E-2
MEAN_MOTION_DDOT = 0

CCSDS_OMM_VERS = 2.0
CREATION_DATE  = 
ORIGINATOR     = 

OBJECT_NAME    = STARLINK-36769
OBJECT_ID      = 2026-034X
CENTER_NAME    = EARTH
REF_FRAME      = TEME
TIME_SYSTEM    = UTC
MEAN_ELEMENT_THEORY = SGP/SGP4

EPOCH          = 2026-03-04T04:00:03.000096
MEAN_MOTION    = 15.80857826
ECCENTRICITY   = .0001113
INCLINATION    = 53.1596
RA_OF_ASC_NODE = 238.8571
ARG_OF_PERICENTER = 60.0611
MEAN_ANOMALY   = 16.3354

EPHEMERIS_TYPE = 0
CLASSIFICATION_TYPE = U
NORAD_CAT_ID   = 67871
ELEMENT_SET_NO = 999
REV_AT_EPOCH   = 297
BSTAR          = .66802E-4
MEAN_MOTION_DOT = .12496E-3
MEAN_MOTION_DDOT = 0

CCSDS_OMM_VERS = 2.0
CREATION_DATE  = 
ORIGINATOR     = 

OBJECT_NAME    = STARLINK-36786
OBJECT_ID      = 2026-034Y
CENTER_NAME    = EARTH
REF_FRAME      = TEME
TIME_SYSTEM    = UTC
MEAN_ELEMENT_THEORY = SGP/SGP4

EPOCH          = 2026-03-04T04:00:03.000096
MEAN_MOTION    = 15.80863699
ECCENTRICITY   = .000078
INCLINATION    = 53.1594
RA_OF_ASC_NODE = 238.8393
ARG_OF_PERICENTER = 68.2574
MEAN_ANOMALY   = 16.6820

EPHEMERIS_TYPE = 0
CLASSIFICATION_TYPE = U
NORAD_CAT_ID   = 67872
ELEMENT_SET_NO = 999
REV_AT_EPOCH   = 297
BSTAR          = -.11445E-4
MEAN_MOTION_DOT = -.2955E-4
MEAN_MOTION_DDOT = 0

